[{"OBJECT_NAME":"STARLINK-32606","OBJECT_ID":"2024-210V","EPOCH":"2026-03-08T07:46:58.635264","MEAN_MOTION":15.27608245,"ECCENTRICITY":0.00022434,"INCLINATION":43.0008,"RA_OF_ASC_NODE":187.3144,"ARG_OF_PERICENTER":295.6512,"MEAN_ANOMALY":64.4108,"EPHEMERIS_TYPE":0,"CLASSIFICATION_TYPE":"U","NORAD_CAT_ID":61978,"ELEMENT_SET_NO":999,"REV_AT_EPOCH":7467,"BSTAR":0.0014874755,"MEAN_MOTION_DOT":0.00040934,"MEAN_MOTION_DDOT":0},{"OBJECT_NAME":"COSMOS 1862","OBJECT_ID":"1987-055A","EPOCH":"2026-03-09T22:37:02.390592","MEAN_MOTION":15.30492139,"ECCENTRICITY":0.00097484,"INCLINATION":82.4856,"RA_OF_ASC_NODE":47.1862,"ARG_OF_PERICENTER":26.6325,"MEAN_ANOMALY":333.5414,"EPHEMERIS_TYPE":0,"CLASSIFICATION_TYPE":"U","NORAD_CAT_ID":18152,"ELEMENT_SET_NO":999,"REV_AT_EPOCH":8987,"BSTAR":0.00034125048,"MEAN_MOTION_DOT":0.00010107,"MEAN_MOTION_DDOT":0}]
